C/2021 V1 (Rankin),e,71.4540,207.6538,195.1224,606.9470,0.0000659,0.99503471,0.0000,04/30.4136/2022,2000,g 13.0,4.0
# From MPEC 2023-A50
P/2021 V2 (Fuls),e,12.6942,232.2839,259.8271,9.056055,0.0361656,0.61389229,359.8408,01/17.0/2023,2000,g 10.0,4.0
# From MPEC 2023-A50
C/2021 X1 (Maury-Attard),h,05/27.4841/2023,140.1213,10.5850,334.6290,1.000026,3.233619,2000,7.0,4.0
# From MPEC 2023-A50
A/2021 X2,h,07/08.1021/2022,137.1597,228.8165,193.2847,1.001230,2.994349,2000,16.0,2.0
# From MPEC 2023-A50
C/2021 Y1 (ATLAS),h,04/30.6989/2023,77.1898,244.7698,245.8136,1.000871,2.032428,2000,7.0,4.0
# From MPEC 2022-YN2
C/2022 A1 (Sarneczky),e,116.5053,285.5277,201.2227,355.6073,0.0001470,0.99647686,0.0000,01/31.1554/2022,2000,g 18.0,4.0
# From MPEC 2023-A50
C/2022 A2 (PANSTARRS),h,02/18.2653/2023,108.1471,171.5797,88.3662,1.000337,1.735284,2000,9.5,4.0
# From MPEC 2023-A50
C/2022 A3 (Lemmon-ATLAS),e,88.3496,325.4836,234.8470,933.5198,0.0000346,0.99603283,0.0000,09/28.8399/2023,2000,g  8.0,4.0
# From MPEC 2022-K19
P/2022 B1 (Wierzchos),e,10.9902,148.8465,325.4738,5.465928,0.0771273,0.65304818,25.1171,01/17.0/2023,2000,g 16.5,4.0
# From MPEC 2022-YB4
A/2022 B3,e,132.0517,286.1831,150.6843,902.0525,0.0000364,0.99590002,0.0000,01/17.5575/2022,2000,g 16.5,2.0
# From MPEC 2022-GA9
C/2022 B4 (Bok),e,20.0437,340.6556,152.9402,381.6174,0.0001322,0.99638599,0.0000,01/29.8925/2022,2000,g 21.0,4.0
# From MPEC 2022-H04
P/2022 C1 (PANSTARRS),e,4.7616,113.1386,9.3612,7.219952,0.0508045,0.44804523,22.2785,01/17.0/2023,2000,g 12.0,4.0
# From MPEC 2022-OB6
P/2022 C2 (PANSTARRS),e,9.9799,135.2675,89.2921,6.043911,0.0663326,0.44235415,10.8446,01/17.0/2023,2000,g 12.5,4.0
# From MPEC 2022-OB6
P/2022 C3 (PANSTARRS),e,12.8163,139.0535,93.9347,9.641881,0.0329201,0.54630785,6.5790,01/17.0/2023,2000,g 11.5,4.0
# From MPEC 2022-K19
P/2022 D1 (PANSTARRS),e,44.0722,47.9586,88.6918,7.401665,0.0489452,0.54714670,24.8147,01/17.0/2023,2000,g 12.5,4.0
# From MPEC 2022-K19
C/2022 D2 (Kowalski),e,22.6542,312.4609,177.7859,366.5631,0.0001404,0.99575828,0.0000,03/27.5714/2022,2000,g 17.0,4.0
# From MPEC 2022-L66
P/2022 E1 (Christensen),e,19.0052,113.3443,115.0776,3.780784,0.1340699,0.22097718,29.5617,01/17.0/2023,2000,g 13.5,4.0
# From MPEC 2023-A50
C/2022 E2 (ATLAS),h,09/13.9481/2024,137.1380,125.3621,41.6767,1.001109,3.667224,2000,5.0,4.0
# From MPEC 2023-A50
C/2022 E3 (ZTF),h,01/12.7832/2023,109.1685,302.5551,145.8153,1.000329,1.112221,2000,7.5,4.0
# From MPEC 2022-WD2
C/2022 F1 (ATLAS),e,57.9722,350.6566,278.2733,14714,0.0000006,0.99959394,0.0000,08/05.2012/2022,2000,g  7.0,4.0
# From MPEC 2022-QD9
C/2022 F2 (NEOWISE),e,97.2930,58.6978,200.6255,23.86954,0.0084516,0.93359632,2.5318,01/17.0/2023,2000,g 14.5,4.0
# From MPEC 2022-P82
C/2022 H1 (PANSTARRS),e,49.8713,6.3682,246.2647,995.0322,0.0000314,0.99226863,0.0000,01/18.8835/2024,2000,g  6.0,4.0
# From MPEC 2022-VC5
C/2022 J1 (Maury-Attard),e,105.9349,280.7273,305.6654,47.62717,0.0029986,0.96631428,0.9954,01/17.0/2023,2000,g 14.9,4.0
# From MPEC 2023-A50
C/2022 J2 (Bok),e,149.0923,252.5590,133.0689,91.92138,0.0011184,0.98011801,0.0000,10/27.0696/2022,2000,g 15.5,4.0
# From MPEC 2022-ST7
C/2022 K1 (Leonard),h,12/17.5191/2021,41.9691,136.2914,142.6764,1.002882,3.987797,2000,11.0,4.0
# From MPEC 2022-YN2
C/2022 L1 (Catalina),e,123.4679,300.0265,59.8580,533.7181,0.0000799,0.99701812,0.0000,09/28.2549/2022,2000,g 15.8,4.0
# From MPEC 2022-Y15
C/2022 L2 (ATLAS),h,03/12.3497/2024,129.3133,39.2426,199.9528,1.001255,2.691945,2000,6.5,4.0
# From MPEC 2023-A50
P/2022 L3 (ATLAS),e,21.5430,29.8053,10.3262,6.504066,0.0594192,0.62794648,4.6970,01/17.0/2023,2000,g 16.5,4.0
# From MPEC 2022-N37
C/2022 L4 (PANSTARRS),e,141.2333,66.0513,125.3273,275.6533,0.0002154,0.98906209,0.0000,12/08.7625/2021,2000,g 14.0,4.0
# From MPEC 2022-WD2
P/2022 M1 (LONEOS-PANSTARRS),e,7.0246,322.9011,4.4583,4.892040,0.0910896,0.57868268,15.2738,01/17.0/2023,2000,g 17.0,4.0
# From MPEC 2022-VC5
C/2022 N1 (Attard-Maury),e,164.7408,301.8604,41.0765,37.04215,0.0043718,0.95999727,0.5637,01/17.0/2023,2000,g 16.9,4.0
# From MPEC 2022-QD9
C/2022 N2 (PANSTARRS),h,07/31.3965/2025,5.5023,319.7365,75.3518,1.004241,3.825844,2000,6.0,4.0
# From MPEC 2023-A50
C/2022 O1 (ATLAS),h,02/15.6100/2022,71.0436,49.9125,268.8894,1.004616,7.430250,2000,6.0,4.0
# From MPEC 2022-YN2
P/2022 O2 (PANSTARRS),e,9.4245,330.4965,48.6352,6.314218,0.0621190,0.72176534,0.6154,01/17.0/2023,2000,g 16.0,4.0
# From MPEC 2022-WQ9
C/2022 P1 (NEOWISE),e,154.6067,205.0821,249.9375,18.40992,0.0124775,0.91335207,0.6179,01/17.0/2023,2000,g 13.0,4.0
# From MPEC 2023-A50
P/2022 P2 (ZTF),e,12.4385,291.2526,137.7617,4.532205,0.1021503,0.56210897,19.3901,01/17.0/2023,2000,g 12.5,4.0
# From MPEC 2023-A50
C/2022 P3 (ZTF),e,59.5178,72.2339,0.0951,244.2623,0.0002582,0.98951399,0.0000,07/27.3494/2022,2000,g 12.0,4.0
# From MPEC 2023-A50
C/2022 Q2 (ATLAS),e,151.4853,352.9437,44.0669,32.62911,0.0052881,0.94961319,359.9228,01/17.0/2023,2000,g 13.0,4.0
# From MPEC 2023-A50
C/2022 QE78 (ATLAS),h,09/10.1993/2025,36.5493,119.9399,0.3458,1.002992,5.482394,2000,5.0,4.0
# From MPEC 2022-WD2
P/2022 R1 (PANSTARRS),e,7.4078,176.1753,222.5661,7.194346,0.0510760,0.50384231,346.3192,01/17.0/2023,2000,g 11.5,4.0
# From MPEC 2022-Y15
C/2022 R2 (ATLAS),e,52.8955,60.4032,78.3766,421.0809,0.0001141,0.99849773,0.0000,10/25.2198/2022,2000,g 17.0,4.0
# From MPEC 2022-YN2
C/2022 R3 (Leonard),h,03/05.0258/2023,43.0826,8.2374,72.8338,1.000509,5.129003,2000,9.0,4.0
# From MPEC 2022-X67
P/2022 R4 (PANSTARRS),e,21.0217,176.6235,197.4273,3.836202,0.1311752,0.49022770,25.0068,01/17.0/2023,2000,g 16.5,4.0
# From MPEC 2022-WQ9
P/2022 R5 (PANSTARRS),e,15.2929,115.0565,240.6324,3.069862,0.1832423,0.19558849,42.9441,01/17.0/2023,2000,g 16.0,4.0
# From MPEC 2023-A50
C/2022 R6 (PANSTARRS),h,08/25.8339/2025,57.0206,150.7570,319.8573,1.003026,6.568954,2000,5.0,4.0
# From MPEC 2022-Y15
P/2022 S1 (PANSTARRS),e,34.5820,136.0923,262.7353,6.409238,0.0607428,0.50830648,9.1680,01/17.0/2023,2000,g 13.0,4.0
# From MPEC 2022-VC5
C/2022 S3 (PANSTARRS),h,01/21.6836/2023,78.5530,157.3229,267.9634,1.000353,0.838390,2000,17.0,4.0
# From MPEC 2022-YN2
C/2022 S4 (Lemmon),h,07/18.0720/2024,101.0350,220.1554,268.3466,1.000583,2.766767,2000,8.0,4.0
# From MPEC 2023-A50
C/2022 S5 (PANSTARRS),e,136.5328,214.8590,232.7747,20.40736,0.0106911,0.89323550,0.5404,01/17.0/2023,2000,g 15.0,4.0
# From MPEC 2022-YN2
A/2022 T1,e,22.5424,236.9189,324.3534,4886,0.0000029,0.99929525,0.0000,02/17.6255/2024,2000,g 12.0,2.0
# From MPEC 2022-YN2
C/2022 U1 (Leonard),e,128.1274,72.5024,78.5125,9401,0.0000011,0.99955289,0.0000,03/25.5447/2024,2000,g  8.5,4.0
# From MPEC 2023-A50
C/2022 U2 (ATLAS),e,48.2488,304.4768,147.9072,95.08891,0.0010629,0.98603392,0.0000,01/14.2190/2023,2000,g 16.0,4.0
# From MPEC 2022-YN2
C/2022 U3 (Bok),h,07/27.6119/2024,33.6206,272.8091,188.9539,1.003106,4.829615,2000,7.5,4.0
# From MPEC 2023-A50
C/2022 U4 (Bok),e,52.0371,132.9314,89.0091,3735,0.0000043,0.99922396,0.0000,08/03.6868/2023,2000,g 10.5,4.0
# From MPEC 2022-Y15
P/2022 U5 (PANSTARRS),e,19.8126,54.5885,19.9924,4.205167,0.1142955,0.36132833,20.0029,01/17.0/2023,2000,g 14.0,4.0
# From MPEC 2023-A50
P/2022 V1 (WISE-Lemmon),e,27.0684,42.8982,70.8216,5.457298,0.0773103,0.58247863,356.5201,01/17.0/2023,2000,g 14.0,4.0
# From MPEC 2023-A50
P/2022 W1 (Rankin),e,13.4661,38.8163,17.7757,6.967991,0.0535849,0.51667922,6.6086,01/17.0/2023,2000,g 12.5,4.0
# From MPEC 2023-A28
C/2022 W2 (ATLAS),e,63.5300,320.4550,123.2287,319.6171,0.0001725,0.99022934,0.0000,03/08.5782/2023,2000,g 11.5,4.0
# From MPEC 2023-A50
C/2022 W3 (Leonard),e,103.5604,132.2704,116.5176,286.5320,0.0002032,0.99512185,0.0000,06/22.7678/2023,2000,g 13.0,4.0
# From MPEC 2023-A50
C/2022 Y1 (Hogan),e,18.8588,285.9150,174.7419,12.54521,0.0221813,0.76423479,1.1260,01/17.0/2023,2000,g 13.0,4.0
# From  98, 1083
1P/Halley,e,162.1751,59.3783,112.2946,17.86960,0.0130476,0.96668950,175.7761,01/17.0/2023,2000,g  4.0,6.0
# From MPEC 2022-Y15
2P/Encke,e,11.3606,334.0961,187.2200,2.219575,0.2980570,0.84723006,277.0112,01/17.0/2023,2000,g 11.5,6.0
# From MPEC 2022-WD2
4P/Faye,e,8.0092,192.9238,207.0444,3.826390,0.1316801,0.57682552,65.1903,01/17.0/2023,2000,g  8.0,6.0
# From MPEC 2022-WD2
6P/d'Arrest,e,19.5110,138.9377,178.0903,3.497016,0.1507154,0.61251068,73.2951,01/17.0/2023,2000,g  7.5,16.0
# From MPEC 2023-A50
7P/Pons-Winnecke,e,22.3717,93.3301,172.5468,3.410096,0.1565144,0.63851775,93.9099,01/17.0/2023,2000,g 10.0,6.0
# From MPEC 2022-HC2
8P/Tuttle,e,54.9292,270.1934,207.4735,5.703581,0.0723573,0.82018863,36.7045,01/17.0/2023,2000,g  8.0,8.0
# From MPEC 2023-A50
9P/Tempel,e,10.4718,68.6631,179.4863,3.149968,0.1762970,0.50955098,56.0396,01/17.0/2023,2000,g  5.5,10.0
# From MPEC 2023-A50
10P/Tempel,e,12.0362,117.8145,195.5233,3.061545,0.1839895,0.53816378,122.1484,01/17.0/2023,2000,g  5.0,10.0
# From MPEC 2023-A50
11P/Tempel-Swift-LINEAR,e,14.4282,238.8739,167.9881,3.283796,0.1656303,0.57744309,129.4302,01/17.0/2023,2000,g 17.0,4.0
# From MPEC 2022-UE6
12P/Pons-Brooks,e,74.1824,255.8382,198.9772,17.19648,0.0138212,0.95457091,353.6411,01/17.0/2023,2000,g  5.0,6.0
# From  27, 604
13P/Olbers,e,44.6193,85.9340,64.3839,16.83050,0.0142744,0.93018257,352.4220,01/17.0/2023,2000,g  5.0,6.0
# From MPEC 2021-F20
14P/Wolf,e,27.9275,202.0404,159.1059,4.257950,0.1121768,0.35719334,209.6988,01/17.0/2023,2000,g  5.5,12.0
# From MPEC 2022-ED3
15P/Finlay,e,6.7980,13.7091,347.8694,3.508164,0.1499976,0.71702102,82.8727,01/17.0/2023,2000,g 12.0,4.0
# From MPEC 2022-X67
16P/Brooks,e,3.0114,138.8685,245.2500,3.658874,0.1408260,0.48643714,89.9256,01/17.0/2023,2000,g  7.5,10.0
# From MPEC 2022-Y15
17P/Holmes,e,19.0285,326.6272,24.5598,3.637859,0.1420481,0.42749659,98.8719,01/17.0/2023,2000,g 10.0,6.0
# From MPEC 2023-A50
19P/Borrelly,e,29.3054,74.2349,351.9361,3.606479,0.1439060,0.63779923,50.2438,01/17.0/2023,2000,g  4.5,10.0
# From MPEC 2021-F20
21P/Giacobini-Zinner,e,32.0592,195.3454,172.8903,3.494821,0.1508574,0.71125649,239.5589,01/17.0/2023,2000,g 11.4,4.0
